start=new Date('%Y-%m-41T00:00:00.000Z').valueOf();
sats=[{"GP_ID":"183156667","FILE":"3100512","DECAY_DATE":null,"OBJECT_ID":"2021-038AP","ARG_OF_PERICENTER":"57.0157","APOAPSIS":"548.223","SEMIMAJOR_AXIS":"6925.366","BSTAR":"0.00167590000000","TIME_SYSTEM":"UTC","TLE_LINE1":"1 48390U 21038AP  21233.00001157  .00024765  00000-0  16759-2 0  9997","OBJECT_TYPE":"PAYLOAD","ECCENTRICITY":"0.00014320","CLASSIFICATION_TYPE":"U","RA_OF_ASC_NODE":"241.2229","CENTER_NAME":"EARTH","OBJECT_NAME":"STARLINK-2586","MEAN_MOTION":"15.06394154","PERIOD":"95.593","ELEMENT_SET_NO":"999","MEAN_MOTION_DOT":"0.00024765","MEAN_MOTION_DDOT":"0.0000000000000","EPHEMERIS_TYPE":"0","TLE_LINE2":"2 48390  53.0510 241.2229 0001432  57.0157  17.3648 15.06394154  3614","EPOCH":"2021-08-21T00:00:00.999648","SITE":"AFETR","REF_FRAME":"TEME","PERIAPSIS":"546.240","INCLINATION":"53.0510","MEAN_ANOMALY":"17.3648","NORAD_CAT_ID":"48390","RCS_SIZE":"LARGE","COUNTRY_CODE":"US","LAUNCH_DATE":"2021-05-04","MEAN_ELEMENT_THEORY":"SGP4","REV_AT_EPOCH":"361"},{"MEAN_ELEMENT_THEORY":"SGP4","LAUNCH_DATE":"2021-05-04","REV_AT_EPOCH":"361","COUNTRY_CODE":"US","RCS_SIZE":"LARGE","NORAD_CAT_ID":"48391","MEAN_ANOMALY":"36.7410","INCLINATION":"53.0509","SITE":"AFETR","REF_FRAME":"TEME","PERIAPSIS":"546.127","EPOCH":"2021-08-21T00:00:00.999648","EPHEMERIS_TYPE":"0","TLE_LINE2":"2 48391  53.0509 241.2255 0001594  57.7419  36.7410 15.06394278  3618","MEAN_MOTION_DDOT":"0.0000000000000","MEAN_MOTION_DOT":"0.00000616","MEAN_MOTION":"15.06394278","OBJECT_NAME":"STARLINK-2607","ELEMENT_SET_NO":"999","PERIOD":"95.593","CLASSIFICATION_TYPE":"U","CENTER_NAME":"EARTH","RA_OF_ASC_NODE":"241.2255","OBJECT_TYPE":"PAYLOAD","ECCENTRICITY":"0.00015940","BSTAR":"0.00006027900000","TLE_LINE1":"1 48391U 21038AQ  21233.00001157  .00000616  00000-0  60279-4 0  9995","TIME_SYSTEM":"UTC","SEMIMAJOR_AXIS":"6925.366","ARG_OF_PERICENTER":"57.7419","APOAPSIS":"548.335","FILE":"3100512","OBJECT_ID":"2021-038AQ","DECAY_DATE":null,"GP_ID":"183157201"},{"EPOCH":"2021-08-21T00:00:00.999648","EPHEMERIS_TYPE":"0","TLE_LINE2":"2 48392  53.0531 241.2202 0001609  56.9601  57.5449 15.06377373  3594","MEAN_MOTION_DDOT":"0.0000000000000","MEAN_MOTION_DOT":"0.00022696","ELEMENT_SET_NO":"999","PERIOD":"95.594","MEAN_MOTION":"15.06377373","OBJECT_NAME":"STARLINK-2605","REV_AT_EPOCH":"359","LAUNCH_DATE":"2021-05-04","MEAN_ELEMENT_THEORY":"SGP4","COUNTRY_CODE":"US","RCS_SIZE":"LARGE","NORAD_CAT_ID":"48392","MEAN_ANOMALY":"57.5449","INCLINATION":"53.0531","PERIAPSIS":"546.169","REF_FRAME":"TEME","SITE":"AFETR","APOAPSIS":"548.397","ARG_OF_PERICENTER":"56.9601","OBJECT_ID":"2021-038AR","DECAY_DATE":null,"FILE":"3100512","GP_ID":"183156757","CENTER_NAME":"EARTH","RA_OF_ASC_NODE":"241.2202","CLASSIFICATION_TYPE":"U","ECCENTRICITY":"0.00016090","OBJECT_TYPE":"PAYLOAD","TIME_SYSTEM":"UTC","TLE_LINE1":"1 48392U 21038AR  21233.00001157  .00022696  00000-0  15386-2 0  9995","BSTAR":"0.00153860000000","SEMIMAJOR_AXIS":"6925.418"},{"REF_FRAME":"TEME","SITE":"AFETR","PERIAPSIS":"546.031","MEAN_ANOMALY":"79.0670","INCLINATION":"53.0538","NORAD_CAT_ID":"48393","LAUNCH_DATE":"2021-05-04","MEAN_ELEMENT_THEORY":"SGP4","REV_AT_EPOCH":"359","COUNTRY_CODE":"US","RCS_SIZE":"LARGE","MEAN_MOTION":"15.06398978","OBJECT_NAME":"STARLINK-2602","ELEMENT_SET_NO":"999","PERIOD":"95.592","MEAN_MOTION_DOT":"0.00021978","EPHEMERIS_TYPE":"0","TLE_LINE2":"2 48393  53.0538 241.2181 0001712  55.4791  79.0670 15.06398978  3596","MEAN_MOTION_DDOT":"0.0000000000000","EPOCH":"2021-08-21T00:00:00.999648","SEMIMAJOR_AXIS":"6925.352","BSTAR":"0.00148980000000","TLE_LINE1":"1 48393U 21038AS  21233.00001157  .00021978  00000-0  14898-2 0  9995","TIME_SYSTEM":"UTC","OBJECT_TYPE":"PAYLOAD","ECCENTRICITY":"0.00017120","CLASSIFICATION_TYPE":"U","CENTER_NAME":"EARTH","RA_OF_ASC_NODE":"241.2181","GP_ID":"183156937","FILE":"3100512","OBJECT_ID":"2021-038AS","DECAY_DATE":null,"ARG_OF_PERICENTER":"55.4791","APOAPSIS":"548.402"},{"PERIOD":"95.591","ELEMENT_SET_NO":"999","MEAN_MOTION":"15.06422275","OBJECT_NAME":"STARLINK-2573","MEAN_MOTION_DOT":"-0.00028283","MEAN_MOTION_DDOT":"0.0000000000000","TLE_LINE2":"2 48394  53.0525 240.0992 0001769  51.2004  19.8018 15.06422275 17471","EPHEMERIS_TYPE":"0","EPOCH":"2021-08-21T06:00:02.000160","PERIAPSIS":"545.920","REF_FRAME":"TEME","SITE":"AFETR","INCLINATION":"53.0525","MEAN_ANOMALY":"19.8018","NORAD_CAT_ID":"48394","RCS_SIZE":"LARGE","COUNTRY_CODE":"US","LAUNCH_DATE":"2021-05-04","MEAN_ELEMENT_THEORY":"SGP4","REV_AT_EPOCH":"1747","GP_ID":"183160199","DECAY_DATE":null,"OBJECT_ID":"2021-038AT","FILE":"3100633","APOAPSIS":"548.370","ARG_OF_PERICENTER":"51.2004","SEMIMAJOR_AXIS":"6925.280","TIME_SYSTEM":"UTC","TLE_LINE1":"1 48394U 21038AT  21233.25002315 -.00028283  00000-0 -18862-2 0  9993","BSTAR":"-0.00188620000000","ECCENTRICITY":"0.00017690","OBJECT_TYPE":"PAYLOAD","RA_OF_ASC_NODE":"240.0992","CENTER_NAME":"EARTH","CLASSIFICATION_TYPE":"U"},{"OBJECT_ID":"2021-038AU","DECAY_DATE":null,"FILE":"3100512","GP_ID":"183156848","APOAPSIS":"548.430","ARG_OF_PERICENTER":"54.6048","TIME_SYSTEM":"UTC","TLE_LINE1":"1 48395U 21038AU  21233.00001157  .00022597  00000-0  15319-2 0  9994","BSTAR":"0.00153190000000","SEMIMAJOR_AXIS":"6925.413","CENTER_NAME":"EARTH","RA_OF_ASC_NODE":"241.2196","CLASSIFICATION_TYPE":"U","ECCENTRICITY":"0.00016640","OBJECT_TYPE":"PAYLOAD","MEAN_MOTION_DOT":"0.00022597","ELEMENT_SET_NO":"999","PERIOD":"95.593","OBJECT_NAME":"STARLINK-2574","MEAN_MOTION":"15.06379033","EPOCH":"2021-08-21T00:00:00.999648","EPHEMERIS_TYPE":"0","TLE_LINE2":"2 48395  53.0520 241.2196 0001664  54.6048 184.9002 15.06379033  3616","MEAN_MOTION_DDOT":"0.0000000000000","MEAN_ANOMALY":"184.9002","INCLINATION":"53.0520","PERIAPSIS":"546.125","REF_FRAME":"TEME","SITE":"AFETR","MEAN_ELEMENT_THEORY":"SGP4","LAUNCH_DATE":"2021-05-04","REV_AT_EPOCH":"361","COUNTRY_CODE":"US","RCS_SIZE":"LARGE","NORAD_CAT_ID":"48395"},{"NORAD_CAT_ID":"48396","COUNTRY_CODE":"US","RCS_SIZE":"LARGE","REV_AT_EPOCH":"359","LAUNCH_DATE":"2021-05-04","MEAN_ELEMENT_THEORY":"SGP4","REF_FRAME":"TEME","SITE":"AFETR","PERIAPSIS":"546.072","INCLINATION":"53.0519","MEAN_ANOMALY":"111.1052","MEAN_MOTION_DDOT":"0.0000000000000","TLE_LINE2":"2 48396  53.0519 241.2186 0001637  63.3538 111.1052 15.06402504  3599","EPHEMERIS_TYPE":"0","EPOCH":"2021-08-21T00:00:00.999648","MEAN_MOTION":"15.06402504","OBJECT_NAME":"STARLINK-2575","PERIOD":"95.592","ELEMENT_SET_NO":"999","MEAN_MOTION_DOT":"0.00021045","OBJECT_TYPE":"PAYLOAD","ECCENTRICITY":"0.00016370","CLASSIFICATION_TYPE":"U","RA_OF_ASC_NODE":"241.2186","CENTER_NAME":"EARTH","SEMIMAJOR_AXIS":"6925.341","BSTAR":"0.00142740000000","TIME_SYSTEM":"UTC","TLE_LINE1":"1 48396U 21038AV  21233.00001157  .00021045  00000-0  14274-2 0  9991","ARG_OF_PERICENTER":"63.3538","APOAPSIS":"548.340","GP_ID":"183157112","FILE":"3100512","DECAY_DATE":null,"OBJECT_ID":"2021-038AV"},{"PERIAPSIS":"546.092","REF_FRAME":"TEME","SITE":"AFETR","MEAN_ANOMALY":"136.5044","INCLINATION":"53.0525","NORAD_CAT_ID":"48397","LAUNCH_DATE":"2021-05-04","MEAN_ELEMENT_THEORY":"SGP4","REV_AT_EPOCH":"361","COUNTRY_CODE":"US","RCS_SIZE":"LARGE","ELEMENT_SET_NO":"999","PERIOD":"95.592","OBJECT_NAME":"STARLINK-2590","MEAN_MOTION":"15.06400441","MEAN_MOTION_DOT":"-0.00007806","TLE_LINE2":"2 48397  53.0525 241.2178 0001617  57.9748 136.5044 15.06400441  3611","EPHEMERIS_TYPE":"0","MEAN_MOTION_DDOT":"0.0000000000000","EPOCH":"2021-08-21T00:00:00.999648","SEMIMAJOR_AXIS":"6925.347","TIME_SYSTEM":"UTC","TLE_LINE1":"1 48397U 21038AW  21233.00001157 -.00007806  00000-0 -50571-3 0  9994","BSTAR":"-0.00050571000000","ECCENTRICITY":"0.00016170","OBJECT_TYPE":"PAYLOAD","CENTER_NAME":"EARTH","RA_OF_ASC_NODE":"241.2178","CLASSIFICATION_TYPE":"U","GP_ID":"183157292","OBJECT_ID":"2021-038AW","DECAY_DATE":null,"FILE":"3100512","APOAPSIS":"548.332","ARG_OF_PERICENTER":"57.9748"},{"BSTAR":"0.00146820000000","TLE_LINE1":"1 48398U 21038AX  21233.00001157  .00021648  00000-0  14682-2 0  9995","TIME_SYSTEM":"UTC","SEMIMAJOR_AXIS":"6925.387","CLASSIFICATION_TYPE":"U","CENTER_NAME":"EARTH","RA_OF_ASC_NODE":"241.2208","OBJECT_TYPE":"PAYLOAD","ECCENTRICITY":"0.00017010","FILE":"3100512","OBJECT_ID":"2021-038AX","DECAY_DATE":null,"GP_ID":"183156668","ARG_OF_PERICENTER":"69.8603","APOAPSIS":"548.430","MEAN_ANOMALY":"144.4834","INCLINATION":"53.0525","SITE":"AFETR","REF_FRAME":"TEME","PERIAPSIS":"546.074","LAUNCH_DATE":"2021-05-04","REV_AT_EPOCH":"359","MEAN_ELEMENT_THEORY":"SGP4","COUNTRY_CODE":"US","RCS_SIZE":"LARGE","NORAD_CAT_ID":"48398","MEAN_MOTION_DOT":"0.00021648","OBJECT_NAME":"STARLINK-2588","MEAN_MOTION":"15.06387391","ELEMENT_SET_NO":"999","PERIOD":"95.593","EPOCH":"2021-08-21T00:00:00.999648","EPHEMERIS_TYPE":"0","TLE_LINE2":"2 48398  53.0525 241.2208 0001701  69.8603 144.4834 15.06387391  3592","MEAN_MOTION_DDOT":"0.0000000000000"},{"INCLINATION":"53.0534","MEAN_ANOMALY":"169.7950","PERIAPSIS":"546.170","REF_FRAME":"TEME","SITE":"AFETR","RCS_SIZE":"LARGE","COUNTRY_CODE":"US","LAUNCH_DATE":"2021-05-04","MEAN_ELEMENT_THEORY":"SGP4","REV_AT_EPOCH":"359","NORAD_CAT_ID":"48399","MEAN_MOTION_DOT":"0.00022212","PERIOD":"95.592","ELEMENT_SET_NO":"999","MEAN_MOTION":"15.06394935","OBJECT_NAME":"STARLINK-2587","EPOCH":"2021-08-21T00:00:00.999648","MEAN_MOTION_DDOT":"0.0000000000000","EPHEMERIS_TYPE":"0","TLE_LINE2":"2 48399  53.0534 241.2198 0001529  64.7462 169.7950 15.06394935  3597","TLE_LINE1":"1 48399U 21038AY  21233.00001157  .00022212  00000-0  15056-2 0  9990","TIME_SYSTEM":"UTC","BSTAR":"0.00150560000000","SEMIMAJOR_AXIS":"6925.364","RA_OF_ASC_NODE":"241.2198","CENTER_NAME":"EARTH","CLASSIFICATION_TYPE":"U","ECCENTRICITY":"0.00015290","OBJECT_TYPE":"PAYLOAD","DECAY_DATE":null,"OBJECT_ID":"2021-038AY","FILE":"3100512","GP_ID":"183157202","APOAPSIS":"548.288","ARG_OF_PERICENTER":"64.7462"}];
